OBJECT_NAME,OBJECT_ID,EPOCH,MEAN_MOTION,ECCENTRICITY,INCLINATION,RA_OF_ASC_NODE,ARG_OF_PERICENTER,MEAN_ANOMALY,EPHEMERIS_TYPE,CLASSIFICATION_TYPE,NORAD_CAT_ID,ELEMENT_SET_NO,REV_AT_EPOCH,BSTAR,MEAN_MOTION_DOT,MEAN_MOTION_DDOT
EYESAT A (AO-27),1993-061C,2026-06-04T03:12:45.986976,14.30938744,.00092497,98.6882,222.5517,133.7828,226.4121,0,U,22825,999,70513,.72222885E-4,.145E-5,0
ITAMSAT (IO-26),1993-061D,2026-06-04T02:48:43.496640,14.31365091,.0009982,98.6830,222.4511,119.1437,241.0746,0,U,22826,999,70544,.66015213E-4,.13E-5,0
RADIO ROSTO (RS15),1994-085A,2026-06-04T04:01:01.204320,11.27583587,.01555498,64.8178,324.2733,6.2800,354.0027,0,U,23439,999,29443,-.18935678E-3,-.49E-6,0
JAS-2 (FO-29),1996-046B,2026-06-04T01:50:27.283488,13.53273623,.03506565,98.5251,5.7442,130.3680,232.8639,0,U,24278,999,47139,.3884969E-5,-.29E-6,0
FORTE,1997-047A,2026-06-04T01:34:31.664928,14.27939819,.00244066,69.9543,43.6595,293.2497,66.6056,0,U,24920,999,49681,.10661295E-3,.207E-5,0
TECHSAT 1B (GO-32),1998-043D,2026-06-03T13:51:55.224864,14.24425649,.00003192,99.0064,146.9934,213.6137,146.5021,0,U,25397,999,44939,.49971906E-4,.69E-6,0
ISS (ZARYA),1998-067A,2026-06-03T23:13:08.053248,15.49590346,.00070816,51.6330,5.5404,130.0270,230.1341,0,U,25544,999,56970,.15806838E-3,.8451E-4,0
IMAGE,2000-017A,2026-06-01T06:23:33.544608,1.68666062,.74437368,94.2162,315.1599,289.6105,8.6041,0,U,26113,999,16123,-.18882371E-1,-.99E-6,0
CLUSTER II-FM7 (SAMBA),2000-041A,2026-06-05T23:36:57.501504,0.44829937,.90409651,149.8917,48.5803,265.6480,0.0292,0,U,26410,999,2025,0,.4453E-4,0
CLUSTER II-FM8 (TANGO),2000-045B,2026-05-30T10:18:46.567296,0.44418197,.90360595,150.1271,48.5941,265.4393,3.5087,0,U,26464,999,2023,0,.4404E-4,0
ODIN,2001-007A,2026-06-04T04:28:00.663456,15.71608948,.00063683,97.3862,195.3329,160.3716,199.7793,0,U,26702,999,38735,.12424464E-2,.162235E-2,0
OMNI-M1,2001-026A,2026-06-01T10:20:26.418048,3.92401639,.00146729,44.8352,248.8960,50.7644,309.4132,0,U,26857,999,20495,0,-.1E-6,0
PCSAT (NO-44),2001-043C,2026-06-03T14:37:22.463328,14.31950876,.00061154,67.0512,279.3895,263.9670,96.0735,0,U,26931,999,28850,.91733675E-4,.163E-5,0
PROBA-1,2001-049B,2026-06-04T06:13:24.777984,15.07438513,.00554022,97.9594,163.3416,164.8987,195.3910,0,U,26958,999,34167,.14013512E-3,.2126E-4,0
SAUDISAT 1C (SO-50),2002-058C,2026-06-03T06:20:18.097440,14.83015002,.00755199,64.5505,172.0623,265.0164,94.2317,0,U,27607,999,26239,.14986347E-3,.1126E-4,0
CORIOLIS,2003-001A,2026-06-04T02:10:33.711744,14.19941104,.00128653,98.7126,162.1754,249.0733,110.9067,0,U,27640,999,21236,.66958056E-4,.99E-6,0
CUTE-1 (CO-55),2003-031E,2026-06-03T13:11:18.293856,14.24327019,.00086909,98.6736,163.2800,219.4250,140.6297,0,U,27844,999,18973,.16425086E-3,.336E-5,0
CUBESAT XI-IV (CO-57),2003-031J,2026-06-01T00:01:20.276832,14.23611465,.00082889,98.6768,160.4891,248.3946,111.6350,0,U,27848,999,18907,.14575851E-3,.288E-5,0
MOZHAETS 4 (RS22),2003-042A,2026-06-04T07:42:40.254336,14.73443963,.0010398,98.3465,339.3166,315.2695,168.2196,0,U,27939,999,21365,.17509181E-3,.1083E-4,0
